NORAD_CAT_ID,OBJECT_NAME,OBJECT_TYPE,EPOCH,MEAN_MOTION,ECCENTRICITY,INCLINATION,RA_OF_ASC_NODE,ARG_OF_PERICENTER,MEAN_ANOMALY,BSTAR,MEAN_MOTION_DOT,MEAN_MOTION_DDOT,TLE_LINE0,TLE_LINE1,TLE_LINE2,SEMIMAJOR_AXIS,PERIOD,APOGEE,PERIGEE,DECAYED
52688.0,STARLINK-4032,PAYLOAD,2024-04-30 05:23:19,15.08841555,0.000113,53.2166,309.7513,95.582,264.5301,0.00016982,2.416e-05,0.0,0 STARLINK-4032,1 52688U 22053AJ  24121.22452944  .00002416  00000-0  16982-3 0  9995,2 52688  53.2166 309.7513 0001130  95.5820 264.5301 15.08841555108693,6917.876,95.437,540.522,538.959,0.0
52688.0,STARLINK-4032,PAYLOAD,2024-04-30 19:41:46,15.08853336,0.0001096,53.2177,307.077,91.3723,268.7395,0.00032053,4.819e-05,0.0,0 STARLINK-4032,1 52688U 22053AJ  24121.82068252  .00004819  00000-0  32053-3 0  9992,2 52688  53.2177 307.0770 0001096  91.3723 268.7395 15.08853336108417,6917.84,95.437,540.463,538.946,0.0
52688.0,STARLINK-4032,PAYLOAD,2024-05-01 05:14:05,15.08850577,0.0001019,53.2165,305.2931,90.4297,269.6812,0.00026917,4e-05,0.0,0 STARLINK-4032,1 52688U 22053AJ  24122.21812470  .00004000  00000-0  26917-3 0  9999,2 52688  53.2165 305.2931 0001019  90.4297 269.6812 15.08850577108478,6917.848,95.437,540.418,539.008,0.0
52688.0,STARLINK-4032,PAYLOAD,2024-05-01 21:07:57,15.08853487,0.0001077,53.2165,302.3195,90.4791,269.6324,8.348e-05,1.041e-05,0.0,0 STARLINK-4032,1 52688U 22053AJ  24122.88052098  .00001041  00000-0  83480-4 0  9995,2 52688  53.2165 302.3195 0001077  90.4791 269.6324 15.08853487108944,6917.839,95.437,540.449,538.959,0.0
52688.0,STARLINK-4032,PAYLOAD,2024-05-02 05:04:53,15.08846397,9.81e-05,53.2165,300.8313,88.5432,271.5672,2.6251e-05,1.3e-06,0.0,0 STARLINK-4032,1 52688U 22053AJ  24123.21172722  .00000130  00000-0  26251-4 0  9991,2 52688  53.2165 300.8313 0000981  88.5432 271.5672 15.08846397108627,6917.861,95.437,540.404,539.047,0.0
52688.0,STARLINK-4032,PAYLOAD,2024-05-02 11:26:25,15.0884821,0.0001007,53.2173,299.6417,87.5055,272.6052,-3.4693e-05,-8.4e-06,0.0,0 STARLINK-4032,1 52688U 22053AJ  24123.47668561 -.00000840  00000-0 -34693-4 0  9999,2 52688  53.2173 299.6417 0001007  87.5055 272.6052 15.08848210109032,6917.855,95.437,540.417,539.024,0.0
52688.0,STARLINK-4032,PAYLOAD,2024-05-03 04:55:39,15.08840185,0.000128,53.2168,296.3715,95.406,264.7078,0.00023277,3.419e-05,0.0,0 STARLINK-4032,1 52688U 22053AJ  24124.20532291  .00003419  00000-0  23277-3 0  9999,2 52688  53.2168 296.3715 0001280  95.4060 264.7078 15.08840185109143,6917.88,95.438,540.63,538.859,0.0
52688.0,STARLINK-4032,PAYLOAD,2024-05-03 17:38:44,15.0885424,0.0001302,53.2164,293.9922,91.584,268.5301,9.1845e-05,1.175e-05,0.0,0 STARLINK-4032,1 52688U 22053AJ  24124.73523216  .00001175  00000-0  91845-4 0  9998,2 52688  53.2164 293.9922 0001302  91.5840 268.5301 15.08854240108855,6917.837,95.437,540.603,538.801,0.0
52688.0,STARLINK-4032,PAYLOAD,2024-05-04 04:46:26,15.0884478,0.0001169,53.2157,291.9114,87.9503,272.1623,9.9458e-05,1.296e-05,0.0,0 STARLINK-4032,1 52688U 22053AJ  24125.19891563  .00001296  00000-0  99458-4 0  9994,2 52688  53.2157 291.9114 0001169  87.9503 272.1623 15.08844780108928,6917.866,95.437,540.539,538.922,0.0
52688.0,STARLINK-4032,PAYLOAD,2024-05-04 11:07:59,15.08829462,0.0001399,53.2209,290.7219,103.1815,256.9333,0.00013054,1.79e-05,0.0,0 STARLINK-4032,1 52688U 22053AJ  24125.46388573  .00001790  00000-0  13054-3 0  9992,2 52688  53.2209 290.7219 0001399 103.1815 256.9333 15.08829462108963,6917.913,95.438,540.745,538.81,0.0
52688.0,STARLINK-4032,PAYLOAD,2024-05-05 10:58:46,15.08841871,0.0001166,53.2187,286.2617,102.2729,257.8394,3.0141e-05,1.92e-06,0.0,0 STARLINK-4032,1 52688U 22053AJ  24126.45748327  .00000192  00000-0  30141-4 0  9991,2 52688  53.2187 286.2617 0001166 102.2729 257.8394 15.08841871109119,6917.875,95.437,540.546,538.933,0.0
52688.0,STARLINK-4032,PAYLOAD,2024-05-05 14:09:32,15.0884574,0.0001287,53.217,285.6664,101.4875,258.6262,4.6792e-05,4.57e-06,0.0,0 STARLINK-4032,1 52688U 22053AJ  24126.58996094  .00000457  00000-0  46792-4 0  9994,2 52688  53.2170 285.6664 0001287 101.4875 258.6262 15.08845740109508,6917.863,95.437,540.618,538.838,0.0
52688.0,STARLINK-4032,PAYLOAD,2024-05-05 15:44:55,15.08846757,0.0001273,53.2176,285.3691,101.9746,258.1389,5.8314e-05,6.4e-06,0.0,0 STARLINK-4032,1 52688U 22053AJ  24126.65620030  .00000640  00000-0  58314-4 0  9993,2 52688  53.2176 285.3691 0001273 101.9746 258.1389 15.08846757109513,6917.86,95.437,540.605,538.844,0.0
52688.0,STARLINK-4032,PAYLOAD,2024-05-06 14:00:20,15.08839984,0.0001361,53.2174,281.2079,107.1936,252.9205,0.00023615,3.472e-05,0.0,0 STARLINK-4032,1 52688U 22053AJ  24127.58356567  .00003472  00000-0  23615-3 0  9998,2 52688  53.2174 281.2079 0001361 107.1936 252.9205 15.08839984109651,6917.88,95.438,540.687,538.804,0.0
52688.0,STARLINK-4032,PAYLOAD,2024-05-06 17:11:05,15.08844002,0.0001128,53.2181,280.6129,96.2886,263.8235,0.00025973,3.849e-05,0.0,0 STARLINK-4032,1 52688U 22053AJ  24127.71604150  .00003849  00000-0  25973-3 0  9994,2 52688  53.2181 280.6129 0001128  96.2886 263.8235 15.08844002109304,6917.868,95.437,540.513,538.953,0.0
52688.0,STARLINK-4032,PAYLOAD,2024-05-07 10:40:21,15.08835647,0.0001298,53.2181,277.3424,98.3234,261.7906,-2.5313e-05,-6.91e-06,0.0,0 STARLINK-4032,1 52688U 22053AJ  24128.44469005 -.00000691  00000-0 -25313-4 0  9996,2 52688  53.2181 277.3424 0001298  98.3234 261.7906 15.08835647109412,6917.894,95.438,540.657,538.861,0.0
52688.0,STARLINK-4032,PAYLOAD,2024-05-07 13:51:07,15.08834595,9.78e-05,53.2167,276.7483,78.1279,281.9823,-4.636e-05,-1.025e-05,0.0,0 STARLINK-4032,1 52688U 22053AJ  24128.57717093 -.00001025  00000-0 -46360-4 0  9990,2 52688  53.2167 276.7483 0000978  78.1279 281.9823 15.08834595109809,6917.897,95.438,540.438,539.085,0.0
52688.0,STARLINK-4032,PAYLOAD,2024-05-07 17:01:53,15.08833898,0.0001039,53.2169,276.1507,87.5228,272.5883,-4.6074e-05,-1.021e-05,0.0,0 STARLINK-4032,1 52688U 22053AJ  24128.70965147 -.00001021  00000-0 -46074-4 0  9998,2 52688  53.2169 276.1507 0001039  87.5228 272.5883 15.08833898109828,6917.899,95.438,540.483,539.045,0.0
52688.0,STARLINK-4032,PAYLOAD,2024-05-08 02:34:14,15.08797727,0.0001328,53.2173,274.3665,96.6622,263.4521,-0.00046121,-7.612e-05,0.0,0 STARLINK-4032,1 52688U 22053AJ  24129.10711685 -.00007612  00000-0 -46121-3 0  9993,2 52688  53.2173 274.3665 0001328  96.6622 263.4521 15.08797727109512,6918.01,95.44,540.793,538.956,0.0
52688.0,STARLINK-4032,PAYLOAD,2024-05-08 13:41:56,15.08827262,0.0001261,53.2163,272.2885,89.2118,270.9018,4.1216e-05,3.68e-06,0.0,0 STARLINK-4032,1 52688U 22053AJ  24129.57078972  .00000368  00000-0  41216-4 0  9999,2 52688  53.2163 272.2885 0001261  89.2118 270.9018 15.08827262109585,6917.919,95.438,540.657,538.912,0.0
52688.0,STARLINK-4032,PAYLOAD,2024-05-08 16:52:41,15.08841335,8.7e-05,53.2163,271.6884,75.6261,284.4828,0.00023972,3.53e-05,0.0,0 STARLINK-4032,1 52688U 22053AJ  24129.70326196  .00003530  00000-0  23972-3 0  9990,2 52688  53.2163 271.6884 0000870  75.6261 284.4828 15.08841335109609,6917.876,95.437,540.343,539.139,0.0
52688.0,STARLINK-4032,PAYLOAD,2024-05-09 15:08:05,15.08853147,0.000102,53.2168,267.5269,79.3834,280.7273,0.00044167,6.751e-05,0.0,0 STARLINK-4032,1 52688U 22053AJ  24130.63061799  .00006751  00000-0  44167-3 0  9996,2 52688  53.2168 267.5269 0001020  79.3834 280.7273 15.08853147110115,6917.84,95.437,540.411,539.0,0.0
52688.0,STARLINK-4032,PAYLOAD,2024-05-09 16:43:28,15.08861782,8.94e-05,53.2171,267.229,69.6247,290.4842,0.00055554,8.57e-05,0.0,0 STARLINK-4032,1 52688U 22053AJ  24130.69685321  .00008570  00000-0  55554-3 0  9998,2 52688  53.2171 267.2290 0000894  69.6247 290.4842 15.08861782109750,6917.814,95.436,540.297,539.06,0.0
52688.0,STARLINK-4032,PAYLOAD,2024-05-10 13:23:29,15.08851756,0.0001169,53.2171,263.3674,55.7744,304.3359,0.00022854,3.352e-05,0.0,0 STARLINK-4032,1 52688U 22053AJ  24131.55797942  .00003352  00000-0  22854-3 0  9997,2 52688  53.2171 263.3674 0001169  55.7744 304.3359 15.08851756109889,6917.844,95.437,540.518,538.901,0.0
52688.0,STARLINK-4032,PAYLOAD,2024-05-10 14:58:52,15.08859089,0.0001015,53.2176,263.0672,79.5658,280.5448,0.00016262,2.303e-05,0.0,0 STARLINK-4032,1 52688U 22053AJ  24131.62421390  .00002303  00000-0  16262-3 0  9997,2 52688  53.2176 263.0672 0001015  79.5658 280.5448 15.08859089109899,6917.822,95.436,540.389,538.985,0.0
52688.0,STARLINK-4032,PAYLOAD,2024-05-11 13:14:12,15.08966671,0.0001472,53.2175,258.9056,94.5223,265.5938,0.0029587,0.0004728,0.0,0 STARLINK-4032,1 52688U 22053AJ  24132.55152887  .00047280  00000-0  29587-2 0  9998,2 52688  53.2175 258.9056 0001472  94.5223 265.5938 15.08966671110030,6917.493,95.43,540.376,538.34,0.0
52688.0,STARLINK-4032,PAYLOAD,2024-05-11 14:49:34,15.0897721,0.000127,53.2182,258.6079,107.5884,252.5247,0.0035562,0.00056981,0.0,0 STARLINK-4032,1 52688U 22053AJ  24132.61776539  .00056981  00000-0  35562-2 0  9999,2 52688  53.2182 258.6079 0001270 107.5884 252.5247 15.08977210110416,6917.461,95.429,540.205,538.448,0.0
52688.0,STARLINK-4032,PAYLOAD,2024-05-12 01:57:18,15.08842993,0.0002296,53.2175,256.5262,80.0609,280.0642,-0.0017506,-0.00028044,0.0,0 STARLINK-4032,1 52688U 22053AJ  24133.08145896 -.00028044  00000-0 -17506-2 0  9996,2 52688  53.2175 256.5262 0002296  80.0609 280.0642 15.08842993110119,6917.871,95.437,541.325,538.148,0.0
52688.0,STARLINK-4032,PAYLOAD,2024-05-12 13:05:02,15.08757828,0.0001699,53.2171,254.4423,91.8236,268.295,-0.0024368,-0.00038775,0.0,0 STARLINK-4032,1 52688U 22053AJ  24133.54516570 -.00038775  00000-0 -24368-2 0  9994,2 52688  53.2171 254.4423 0001699  91.8236 268.2950 15.08757828110182,6918.132,95.443,541.172,538.821,0.0
52688.0,STARLINK-4032,PAYLOAD,2024-05-12 14:40:26,15.08722688,0.0001764,53.2171,254.1474,86.8326,273.2867,0.0010403,0.00016254,0.0,0 STARLINK-4032,1 52688U 22053AJ  24133.61141955  .00016254  00000-0  10403-2 0  9994,2 52688  53.2171 254.1474 0001764  86.8326 273.2867 15.08722688110563,6918.239,95.445,541.324,538.884,0.0
